SHIJIAN-6 05A (SJ-6 05A)
1 49961U 21122A   26068.88345882  .00003299  00000+0  27617-3 0  9993
2 49961  97.4012  42.3306 0003221  76.6317 283.5266 14.99085264233873
STARLINK-34061          
1 63876U 25094N   26068.85947909  .00004223  00000+0  36145-3 0  9995
2 63876  70.0018 234.2253 0003093 273.3985  86.6821 14.98336916 47227
