[{"OBJECT_NAME":"SHIJIAN-6 05A (SJ-6 05A)","OBJECT_ID":"2021-122A","EPOCH":"2026-03-09T21:12:10.842048","MEAN_MOTION":14.99085264,"ECCENTRICITY":0.0003221,"INCLINATION":97.4012,"RA_OF_ASC_NODE":42.3306,"ARG_OF_PERICENTER":76.6317,"MEAN_ANOMALY":283.5266,"EPHEMERIS_TYPE":0,"CLASSIFICATION_TYPE":"U","NORAD_CAT_ID":49961,"ELEMENT_SET_NO":999,"REV_AT_EPOCH":23387,"BSTAR":0.00027617,"MEAN_MOTION_DOT":3.299e-5,"MEAN_MOTION_DDOT":0},{"OBJECT_NAME":"STARLINK-34061","OBJECT_ID":"2025-094N","EPOCH":"2026-03-09T20:37:38.993376","MEAN_MOTION":14.98336916,"ECCENTRICITY":0.0003093,"INCLINATION":70.0018,"RA_OF_ASC_NODE":234.2253,"ARG_OF_PERICENTER":273.3985,"MEAN_ANOMALY":86.6821,"EPHEMERIS_TYPE":0,"CLASSIFICATION_TYPE":"U","NORAD_CAT_ID":63876,"ELEMENT_SET_NO":999,"REV_AT_EPOCH":4722,"BSTAR":0.00036145,"MEAN_MOTION_DOT":4.223e-5,"MEAN_MOTION_DDOT":0}]
